OBJECT_NAME,OBJECT_ID,EPOCH,MEAN_MOTION,ECCENTRICITY,INCLINATION,RA_OF_ASC_NODE,ARG_OF_PERICENTER,MEAN_ANOMALY,EPHEMERIS_TYPE,CLASSIFICATION_TYPE,NORAD_CAT_ID,ELEMENT_SET_NO,REV_AT_EPOCH,BSTAR,MEAN_MOTION_DOT,MEAN_MOTION_DDOT
STARLINK-30705,2023-148L,2026-07-02T06:33:19.020384,15.34386595,.00013033,53.1598,210.7794,91.2119,268.9033,0,U,57945,999,15598,.23910064E-4,.431E-5,0
STARLINK-30704,2023-148M,2026-07-01T16:39:41.399424,15.34412040,.00015553,53.1605,291.1125,96.6237,263.4942,0,U,57946,999,15478,.73734448E-4,.2116E-4,0
STARLINK-30706,2023-148N,2026-07-02T07:27:43.606368,15.34403846,.0001237,53.1581,210.2950,68.7436,291.3699,0,U,57947,999,15599,.1633598E-3,.5148E-4,0
STARLINK-30707,2023-148Q,2026-07-02T06:15:08.209152,15.34390731,.00009874,53.1596,210.6957,87.4309,272.6806,0,U,57949,999,15598,.39722129E-4,.966E-5,0
STARLINK-30701,2023-148R,2026-07-02T07:09:40.203936,15.34392070,.00012061,53.1603,210.9172,95.3032,264.8109,0,U,57950,999,15598,.22676288E-4,.39E-5,0
STARLINK-30399,2023-148S,2026-07-02T06:03:00.831744,15.34392148,.0001078,53.1590,210.6251,90.0053,270.1073,0,U,57951,999,15598,.51449889E-4,.1362E-4,0
STARLINK-30713,2023-148T,2026-07-02T06:45:26.337312,15.34406014,.00011227,53.1580,210.8278,107.7284,252.3841,0,U,57952,999,15598,.41753076E-4,.1035E-4,0
STARLINK-30700,2023-148U,2026-07-02T06:47:58.536960,15.30217568,.0001208,53.1566,201.9337,91.4733,268.6406,0,U,57953,999,15610,.25461439E-3,.7193E-4,0
STARLINK-30703,2023-148V,2026-07-02T06:02:52.151136,15.34390221,.00012792,53.1601,200.5667,88.4419,271.6731,0,U,57954,999,15612,.11439439E-4,.1E-6,0
STARLINK-30702,2023-148W,2026-07-02T07:09:31.772160,15.34388295,.00012807,53.1606,200.8485,86.2637,273.8512,0,U,57955,999,15612,.36238312E-4,.848E-5,0
STARLINK-30396,2023-151A,2026-07-01T23:45:46.827648,15.27591379,.00012412,43.0014,50.8046,273.9051,86.1659,0,U,57964,999,15324,.66201366E-4,.1561E-4,0
STARLINK-30524,2023-151B,2026-07-01T23:36:33.682752,15.27561541,.00012093,43.0012,50.7602,259.6058,100.4657,0,U,57965,999,15324,-.1277481E-5,-.297E-5,0
STARLINK-30521,2023-151C,2026-07-01T22:48:26.963712,15.27566846,.00013975,43.0042,50.5055,264.3777,95.6915,0,U,57966,999,15324,.22331534E-4,.352E-5,0
STARLINK-30528,2023-151D,2026-07-01T16:37:22.915776,15.27568111,.0001343,43.0067,52.0124,266.2340,93.8358,0,U,57967,999,15320,-.33460203E-4,-.1182E-4,0
STARLINK-30495,2023-151E,2026-07-01T23:14:21.177024,15.27565284,.00015261,43.0043,50.6357,266.5396,93.5281,0,U,57968,999,15324,.80027449E-4,.194E-4,0
STARLINK-30494,2023-151G,2026-07-01T21:55:13.259424,15.27570106,.00014677,43.0023,265.4754,266.3608,93.7076,0,U,57970,999,15492,.56358961E-4,.1289E-4,0
STARLINK-30498,2023-151H,2026-07-01T21:34:37.808544,15.27577646,.00015123,43.0079,50.9651,268.1806,91.8873,0,U,57971,999,15323,.59963465E-4,.1388E-4,0
STARLINK-30505,2023-151J,2026-07-01T23:42:04.938624,15.27609181,.00018397,43.0002,50.7649,273.1130,86.9511,0,U,57972,999,15324,.13200546E-2,.36275E-3,0
STARLINK-30502,2023-151K,2026-07-01T23:03:12.620736,15.27595852,.00013137,43.0056,50.5698,270.7548,89.3153,0,U,57973,999,15324,.13239201E-3,.3384E-4,0
STARLINK-30489,2023-151L,2026-07-01T21:36:28.609632,15.27574837,.00018498,43.0036,50.9813,283.0473,77.0172,0,U,57974,999,15323,-.18339246E-3,-.5305E-4,0
STARLINK-30503,2023-151M,2026-07-01T23:51:20.630592,15.27575546,.00016603,43.0046,50.7946,271.8292,88.2370,0,U,57975,999,15324,.40824865E-4,.861E-5,0
STARLINK-30512,2023-151N,2026-07-01T16:42:53.670528,15.27565509,.00009491,43.0036,51.9751,285.2799,74.7948,0,U,57976,999,15320,.21926607E-3,.5774E-4,0
STARLINK-30509,2023-151P,2026-07-01T17:22:48.403776,15.27591190,.00018235,43.0038,66.6662,281.4598,78.6049,0,U,57977,999,15303,.1066437E-3,.2674E-4,0
STARLINK-30511,2023-151Q,2026-07-01T23:48:43.074144,15.27563445,.00011859,43.0035,65.2347,254.1471,105.9250,0,U,57978,999,15307,-.24273144E-4,-.93E-5,0
STARLINK-30508,2023-151R,2026-07-01T23:54:14.131296,15.27607335,.00014337,43.0037,65.2601,267.1999,92.8688,0,U,57979,999,15307,.38423531E-3,.10335E-3,0
STARLINK-30510,2023-151T,2026-07-01T23:22:06.092832,15.27561106,.00018188,43.0014,68.4971,271.4284,88.6359,0,U,57981,999,15303,-.21551069E-4,-.855E-5,0
STARLINK-30507,2023-151U,2026-07-01T17:11:00.124224,15.27595990,.00010798,42.9911,69.9987,262.0583,98.0146,0,U,57982,999,15298,.4849625E-3,.13114E-3,0
STARLINK-30515,2023-151V,2026-07-01T23:33:11.306304,15.27574832,.00015289,43.0022,68.5513,278.5311,81.5367,0,U,57983,999,15302,.58049733E-4,.1335E-4,0
STARLINK-30516,2023-151W,2026-07-01T23:38:45.239712,15.27560784,.00014116,43.0012,68.5894,266.0995,93.9695,0,U,57984,999,15303,-.6030611E-5,-.428E-5,0
STARLINK-30519,2023-151X,2026-07-01T16:10:52.126752,15.27572845,.0002124,43.0083,67.1479,274.9109,85.1500,0,U,57985,999,15296,-.41271078E-4,-.1398E-4,0
