STARLINK-30705          
1 57945U 23148L   26183.27313681  .00000431  00000+0  23910-4 0  9995
2 57945  53.1598 210.7794 0001303  91.2119 268.9033 15.34386595155981
STARLINK-30704          
1 57946U 23148M   26182.69422916  .00002116  00000+0  73734-4 0  9994
2 57946  53.1605 291.1125 0001555  96.6237 263.4942 15.34412040154782
STARLINK-30706          
1 57947U 23148N   26183.31092137  .00005148  00000+0  16336-3 0  9995
2 57947  53.1581 210.2950 0001237  68.7436 291.3699 15.34403846155999
STARLINK-30707          
1 57949U 23148Q   26183.26051168  .00000966  00000+0  39722-4 0  9998
2 57949  53.1596 210.6957 0000987  87.4309 272.6806 15.34390731155985
STARLINK-30701          
1 57950U 23148R   26183.29838199  .00000390  00000+0  22676-4 0  9991
2 57950  53.1603 210.9172 0001206  95.3032 264.8109 15.34392070155981
STARLINK-30399          
1 57951U 23148S   26183.25209296  .00001362  00000+0  51450-4 0  9990
2 57951  53.1590 210.6251 0001078  90.0053 270.1073 15.34392148155980
STARLINK-30713          
1 57952U 23148T   26183.28155483  .00001035  00000+0  41753-4 0  9994
2 57952  53.1580 210.8278 0001122 107.7284 252.3841 15.34406014155986
STARLINK-30700          
1 57953U 23148U   26183.28331640  .00007193  00000+0  25461-3 0  9994
2 57953  53.1566 201.9337 0001208  91.4733 268.6406 15.30217568156103
STARLINK-30703          
1 57954U 23148V   26183.25199249  .00000010  00000+0  11439-4 0  9991
2 57954  53.1601 200.5667 0001279  88.4419 271.6731 15.34390221156129
STARLINK-30702          
1 57955U 23148W   26183.29828440  .00000848  00000+0  36238-4 0  9991
2 57955  53.1606 200.8485 0001280  86.2637 273.8512 15.34388295156125
STARLINK-30396          
1 57964U 23151A   26182.99012532  .00001561  00000+0  66201-4 0  9994
2 57964  43.0014  50.8046 0001241 273.9051  86.1659 15.27591379153242
STARLINK-30524          
1 57965U 23151B   26182.98372318 -.00000297  00000+0 -12775-5 0  9990
2 57965  43.0012  50.7602 0001209 259.6058 100.4657 15.27561541153246
STARLINK-30521          
1 57966U 23151C   26182.95031208  .00000352  00000+0  22332-4 0  9997
2 57966  43.0042  50.5055 0001397 264.3777  95.6915 15.27566846153244
STARLINK-30528          
1 57967U 23151D   26182.69262634 -.00001182  00000+0 -33460-4 0  9996
2 57967  43.0067  52.0124 0001343 266.2340  93.8358 15.27568111153208
STARLINK-30495          
1 57968U 23151E   26182.96830066  .00001940  00000+0  80027-4 0  9998
2 57968  43.0043  50.6357 0001526 266.5396  93.5281 15.27565284153246
STARLINK-30494          
1 57970U 23151G   26182.91334791  .00001289  00000+0  56359-4 0  9997
2 57970  43.0023 265.4754 0001467 266.3608  93.7076 15.27570106154921
STARLINK-30498          
1 57971U 23151H   26182.89904871  .00001388  00000+0  59963-4 0  9991
2 57971  43.0079  50.9651 0001512 268.1806  91.8873 15.27577646153230
STARLINK-30505          
1 57972U 23151J   26182.98755716  .00036275  00000+0  13201-2 0  9990
2 57972  43.0002  50.7649 0001839 273.1130  86.9511 15.27609181153245
STARLINK-30502          
1 57973U 23151K   26182.96056274  .00003384  00000+0  13239-3 0  9999
2 57973  43.0056  50.5698 0001313 270.7548  89.3153 15.27595852153248
STARLINK-30489          
1 57974U 23151L   26182.90033113 -.00005305  00000+0 -18339-3 0  9994
2 57974  43.0036  50.9813 0001849 283.0473  77.0172 15.27574837153232
STARLINK-30503          
1 57975U 23151M   26182.99398878  .00000861  00000+0  40825-4 0  9992
2 57975  43.0046  50.7946 0001660 271.8292  88.2370 15.27575546153247
STARLINK-30512          
1 57976U 23151N   26182.69645452  .00005774  00000+0  21927-3 0  9992
2 57976  43.0036  51.9751 0000949 285.2799  74.7948 15.27565509153209
STARLINK-30509          
1 57977U 23151P   26182.72417134  .00002674  00000+0  10664-3 0  9993
2 57977  43.0038  66.6662 0001823 281.4598  78.6049 15.27591190153034
STARLINK-30511          
1 57978U 23151Q   26182.99216521 -.00000930  00000+0 -24273-4 0  9997
2 57978  43.0035  65.2347 0001185 254.1471 105.9250 15.27563445153079
STARLINK-30508          
1 57979U 23151R   26182.99599689  .00010335  00000+0  38424-3 0  9997
2 57979  43.0037  65.2601 0001433 267.1999  92.8688 15.27607335153076
STARLINK-30510          
1 57981U 23151T   26182.97368163 -.00000855  00000+0 -21551-4 0  9991
2 57981  43.0014  68.4971 0001818 271.4284  88.6359 15.27561106153030
STARLINK-30507          
1 57982U 23151U   26182.71597366  .00013114  00000+0  48496-3 0  9999
2 57982  42.9911  69.9987 0001079 262.0583  98.0146 15.27595990152985
STARLINK-30515          
1 57983U 23151V   26182.98138086  .00001335  00000+0  58050-4 0  9999
2 57983  43.0022  68.5513 0001528 278.5311  81.5367 15.27574832153021
STARLINK-30516          
1 57984U 23151W   26182.98524583 -.00000428  00000+0 -60306-5 0  9993
2 57984  43.0012  68.5894 0001411 266.0995  93.9695 15.27560784153037
STARLINK-30519          
1 57985U 23151X   26182.67421443 -.00001398  00000+0 -41271-4 0  9997
2 57985  43.0083  67.1479 0002124 274.9109  85.1500 15.27572845152967
